COSMOS 2251 DEB         
1 35042U 93036AHF 17345.29162657  .00002372  00000-0  29722-3 0  9992
2 35042  74.0144 318.3006 0028841 153.7015 206.5635 14.82555281460954
